KUIPER-00079            
1 64826U 25151L   25249.91668981 -.00004235  00000+0 -23121-3 0  9997
2 64826  51.8973  35.9826 0010221 338.7287 319.7461 15.11220958  5299
KUIPER-00080            
1 64827U 25151M   25249.91668981  .00027738  00000+0  16067-2 0  9999
2 64827  51.8976  35.9635 0004204   9.5289  17.1935 15.12000304  4959
KUIPER-00082            
1 64828U 25151N   25249.70694731  .00037434  00000+0  10297-2 0  9992
2 64828  51.8790  34.5879 0006233 326.7439  33.3155 15.36808126  8057
KUIPER-00083            
1 64829U 25151P   25249.91668981 -.00514154  00000+0 -23014-1 0  9995
2 64829  51.8818  34.3348 0008704 340.2731  64.4796 15.23069354  4958
KUIPER-00084            
1 64830U 25151Q   25249.91668981  .00040833  00000+0  34927-2 0  9999
2 64830  51.8948  39.0211 0010646 333.3607 244.6931 14.97177170  5723
KUIPER-00085            
1 64831U 25151R   25249.70160007  .00063105  00000+0  17115-2 0  9990
2 64831  51.8790  34.5562 0006917 327.3824  32.6735 15.37006337  8055
KUIPER-00086            
1 64832U 25151S   25249.91668981 -.00532133  00000+0 -27791-1 0  9992
2 64832  51.8865  35.0653 0010413 331.8916  66.0753 15.17505995  5841
KUIPER-00087            
1 64833U 25151T   25249.90564942 -.00125000  00000+0 -36373-2 0  9992
2 64833  51.8795  33.6727 0007074   5.7551 354.3515 15.35293017  8088
